[{"OBJECT_NAME":"STARLINK-4105","OBJECT_ID":"2022-083AN","EPOCH":"2026-03-09T22:55:34.789728","MEAN_MOTION":15.08841696,"ECCENTRICITY":0.0002422,"INCLINATION":53.2182,"RA_OF_ASC_NODE":162.9298,"ARG_OF_PERICENTER":166.2799,"MEAN_ANOMALY":193.826,"EPHEMERIS_TYPE":0,"CLASSIFICATION_TYPE":"U","NORAD_CAT_ID":53168,"ELEMENT_SET_NO":999,"REV_AT_EPOCH":20140,"BSTAR":-0.00032533886,"MEAN_MOTION_DOT":-5.463e-5,"MEAN_MOTION_DDOT":0},{"OBJECT_NAME":"KUIPER-00148","OBJECT_ID":"2025-217H","EPOCH":"2026-03-09T06:36:19.446048","MEAN_MOTION":15.09536529,"ECCENTRICITY":0.00081087,"INCLINATION":51.8794,"RA_OF_ASC_NODE":26.5769,"ARG_OF_PERICENTER":351.8096,"MEAN_ANOMALY":8.2745,"EPHEMERIS_TYPE":0,"CLASSIFICATION_TYPE":"U","NORAD_CAT_ID":65769,"ELEMENT_SET_NO":999,"REV_AT_EPOCH":2507,"BSTAR":0.00098730243,"MEAN_MOTION_DOT":0.00015783,"MEAN_MOTION_DDOT":0}]
